EUTELSAT 8 WEST B       
1 40875U 15039B   25345.56120148 -.00000058  00000+0  00000+0 0  9990
2 40875   0.0650   5.4602 0004198 256.0204  13.0875  1.00271600 37770
EUTELSAT 9B             
1 41310U 16005A   25345.20802927  .00000068  00000+0  00000+0 0  9992
2 41310   0.0412  60.4981 0004798 205.8314 257.7530  1.00273032 36238
EUTELSAT 65 WEST A      
1 41382U 16014A   25345.55002141 -.00000269  00000+0  00000+0 0  9993
2 41382   0.0513  11.3121 0002560 256.1627 305.8425  1.00272242 35656
EUTELSAT 117 WEST B     
1 41589U 16038B   25344.96907110 -.00000006  00000+0  00000+0 0  9991
2 41589   0.0411 158.7318 0000323 311.5520 201.5309  1.00269754 34778
EUTELSAT 172B           
1 42741U 17029B   25345.59708170  .00000001  00000+0  00000+0 0  9992
2 42741   0.0312 156.9432 0000053 127.6735 182.8823  1.00269732 31854
EUTELSAT 7C             
1 44334U 19034B   25345.56423484  .00000055  00000+0  00000+0 0  9998
2 44334   0.0725 179.0974 0003297  64.3960  47.1384  1.00271297  4954
EUTELSAT 5 WEST B       
1 44624U 19067A   25345.34799684 -.00000036  00000+0  00000+0 0  9990
2 44624   0.0628 346.4733 0003415 274.6550 299.4597  1.00271596 22550
EUTELSAT KONNECT        
1 45027U 20005B   25345.56440817  .00000056  00000+0  00000+0 0  9998
2 45027   0.0703  96.1722 0001602 189.5531   5.1776  1.00269610 22452
